{"fetched_at":"2026-03-29T16:36:15Z","count":15609,"tles":[{"name":"STARLINK-35291","line1":"1 66083U 25235AB  26087.61153144  .00039613  00000+0  13424-2 0  9995","line2":"2 66083  53.1584 157.7189 0001305  82.0311 278.0838 15.30200537 25787","category":"Starlink"}]}